NORAD_CAT_ID,OBJECT_NAME,OBJECT_TYPE,EPOCH,MEAN_MOTION,ECCENTRICITY,INCLINATION,RA_OF_ASC_NODE,ARG_OF_PERICENTER,MEAN_ANOMALY,BSTAR,MEAN_MOTION_DOT,MEAN_MOTION_DDOT,TLE_LINE0,TLE_LINE1,TLE_LINE2,SEMIMAJOR_AXIS,PERIOD,APOGEE,PERIGEE,DECAYED
53922.0,STARLINK-5002,PAYLOAD,2024-02-21 17:38:26,15.08838284,0.0001485,53.218,67.0818,98.6033,261.5127,-4.0298e-06,-3.52e-06,0.0,0 STARLINK-5002,1 53922U 22119AN  24052.73503277 -.00000352  00000-0 -40298-5 0  9993,2 53922  53.2180  67.0818 0001485  98.6033 261.5127 15.08838284 79062,6917.886,95.438,540.778,538.723,0.0
53922.0,STARLINK-5002,PAYLOAD,2024-02-22 04:46:09,15.08832301,0.0001533,53.218,64.9995,103.5628,256.5535,9.8157e-05,1.274e-05,0.0,0 STARLINK-5002,1 53922U 22119AN  24053.19871677  .00001274  00000-0  98157-4 0  9994,2 53922  53.2180  64.9995 0001533 103.5628 256.5535 15.08832301 78716,6917.904,95.438,540.829,538.708,0.0
53922.0,STARLINK-5002,PAYLOAD,2024-02-22 07:56:55,15.088331,0.0001543,53.2181,64.4055,104.7733,255.343,0.00011474,1.538e-05,0.0,0 STARLINK-5002,1 53922U 22119AN  24053.33119655  .00001538  00000-0  11474-3 0  9990,2 53922  53.2181  64.4055 0001543 104.7733 255.3430 15.08833100 79158,6917.901,95.438,540.834,538.699,0.0
53922.0,STARLINK-5002,PAYLOAD,2024-02-22 17:29:14,15.08838197,0.0001473,53.2188,62.6201,97.4185,262.6975,0.00011619,1.562e-05,0.0,0 STARLINK-5002,1 53922U 22119AN  24053.72863442  .00001562  00000-0  11619-3 0  9991,2 53922  53.2188  62.6201 0001473  97.4185 262.6975 15.08838197 79212,6917.886,95.438,540.77,538.732,0.0
53922.0,STARLINK-5002,PAYLOAD,2024-02-23 10:58:28,15.08844716,0.0001408,53.2176,59.3475,97.3028,262.8124,0.00012949,1.774e-05,0.0,0 STARLINK-5002,1 53922U 22119AN  24054.45727081  .00001774  00000-0  12949-3 0  9992,2 53922  53.2176  59.3475 0001408  97.3028 262.8124 15.08844716 78905,6917.866,95.437,540.705,538.757,0.0
53922.0,STARLINK-5002,PAYLOAD,2024-02-24 04:27:43,15.08838525,0.0001507,53.2181,56.0753,82.7136,277.4027,9.943e-05,1.295e-05,0.0,0 STARLINK-5002,1 53922U 22119AN  24055.18591678  .00001295  00000-0  99430-4 0  9993,2 53922  53.2181  56.0753 0001507  82.7136 277.4027 15.08838525 79010,6917.885,95.438,540.792,538.707,0.0
53922.0,STARLINK-5002,PAYLOAD,2024-02-24 09:13:52,15.08848538,0.0001323,53.2179,55.1835,93.0153,267.0991,0.00011364,1.522e-05,0.0,0 STARLINK-5002,1 53922U 22119AN  24055.38462988  .00001522  00000-0  11364-3 0  9998,2 53922  53.2179  55.1835 0001323  93.0153 267.0991 15.08848538 79041,6917.854,95.437,540.635,538.804,0.0
53922.0,STARLINK-5002,PAYLOAD,2024-02-24 17:10:46,15.08858702,0.0001214,53.2183,53.6974,89.58,270.5332,0.00019674,2.846e-05,0.0,0 STARLINK-5002,1 53922U 22119AN  24055.71581972  .00002846  00000-0  19674-3 0  9992,2 53922  53.2183  53.6974 0001214  89.5800 270.5332 15.08858702 79098,6917.823,95.436,540.528,538.848,0.0
53922.0,STARLINK-5002,PAYLOAD,2024-02-25 04:18:29,15.08851321,0.0001573,53.22,51.6158,88.9715,271.1457,0.000111,1.48e-05,0.0,0 STARLINK-5002,1 53922U 22119AN  24056.17950402  .00001480  00000-0  11100-3 0  9990,2 53922  53.2200  51.6158 0001573  88.9715 271.1457 15.08851321 79169,6917.846,95.437,540.799,538.623,0.0
53922.0,STARLINK-5002,PAYLOAD,2024-02-25 05:53:52,15.08850627,0.0001618,53.2202,51.3181,81.1196,278.9979,6.4408e-05,7.37e-06,0.0,0 STARLINK-5002,1 53922U 22119AN  24056.24574501  .00000737  00000-0  64408-4 0  9994,2 53922  53.2202  51.3181 0001618  81.1196 278.9979 15.08850627 79591,6917.848,95.437,540.832,538.594,0.0
53922.0,STARLINK-5002,PAYLOAD,2024-02-25 17:01:35,15.08836576,0.0001514,53.2186,49.2374,76.5127,283.6034,-6.4613e-05,-1.316e-05,0.0,0 STARLINK-5002,1 53922U 22119AN  24056.70943602 -.00001316  00000-0 -64613-4 0  9991,2 53922  53.2186  49.2374 0001514  76.5127 283.6034 15.08836576 79243,6917.891,95.438,540.803,538.708,0.0
53922.0,STARLINK-5002,PAYLOAD,2024-02-26 05:44:39,15.08845248,0.0001426,53.2174,46.8582,95.2004,264.9151,1.6524e-05,-2.5e-07,0.0,0 STARLINK-5002,1 53922U 22119AN  24057.23934849 -.00000025  00000-0  16524-4 0  9996,2 53922  53.2174  46.8582 0001426  95.2004 264.9151 15.08845248 79325,6917.864,95.437,540.716,538.743,0.0
53922.0,STARLINK-5002,PAYLOAD,2024-02-26 23:13:54,15.08837316,0.0001625,53.2172,43.5893,81.0568,279.0608,-2.4481e-05,-6.78e-06,0.0,0 STARLINK-5002,1 53922U 22119AN  24057.96799530 -.00000678  00000-0 -24481-4 0  9998,2 53922  53.2172  43.5893 0001625  81.0568 279.0608 15.08837316 79850,6917.889,95.438,540.878,538.629,0.0
53922.0,STARLINK-5002,PAYLOAD,2024-02-27 04:00:04,15.0883529,0.0001526,53.2178,42.6961,87.9113,272.2054,-3.451e-05,-8.37e-06,0.0,0 STARLINK-5002,1 53922U 22119AN  24058.16671682 -.00000837  00000-0 -34510-4 0  9999,2 53922  53.2178  42.6961 0001526  87.9113 272.2054 15.08835290 79469,6917.895,95.438,540.815,538.704,0.0
53922.0,STARLINK-5002,PAYLOAD,2024-02-27 08:46:13,15.08830552,0.0001569,53.2182,41.8017,92.8188,267.2984,8.087e-05,9.99e-06,0.0,0 STARLINK-5002,1 53922U 22119AN  24058.36543600  .00000999  00000-0  80870-4 0  9996,2 53922  53.2182  41.8017 0001569  92.8188 267.2984 15.08830552 79913,6917.909,95.438,540.86,538.689,0.0
53922.0,STARLINK-5002,PAYLOAD,2024-02-27 23:04:42,15.08828711,0.000145,53.2187,39.1252,107.3681,252.747,9.7581e-05,1.265e-05,0.0,0 STARLINK-5002,1 53922U 22119AN  24058.96159874  .00001265  00000-0  97581-4 0  9992,2 53922  53.2187  39.1252 0001450 107.3681 252.7470 15.08828711 80003,6917.915,95.438,540.783,538.777,0.0
53922.0,STARLINK-5002,PAYLOAD,2024-02-28 05:26:14,15.08839577,0.0001645,53.2185,37.9389,95.3962,264.7218,6.9922e-05,8.25e-06,0.0,0 STARLINK-5002,1 53922U 22119AN  24059.22655459  .00000825  00000-0  69922-4 0  9991,2 53922  53.2185  37.9389 0001645  95.3962 264.7218 15.08839577 79623,6917.882,95.438,540.885,538.609,0.0
53922.0,STARLINK-5002,PAYLOAD,2024-02-28 21:20:06,15.08832499,0.0001607,53.2185,34.9667,93.2032,266.9144,6.6765e-05,7.75e-06,0.0,0 STARLINK-5002,1 53922U 22119AN  24059.88896099  .00000775  00000-0  66765-4 0  9996,2 53922  53.2185  34.9667 0001607  93.2032 266.9144 15.08832499 80149,6917.903,95.438,540.88,538.657,0.0
53922.0,STARLINK-5002,PAYLOAD,2024-02-29 08:27:47,15.08841082,0.00016,53.2193,32.8822,89.5162,270.6014,9.9384e-05,1.294e-05,0.0,0 STARLINK-5002,1 53922U 22119AN  24060.35263527  .00001294  00000-0  99384-4 0  9994,2 53922  53.2193  32.8822 0001600  89.5162 270.6014 15.08841082 79798,6917.877,95.437,540.849,538.635,0.0
53922.0,STARLINK-5002,PAYLOAD,2024-02-29 14:49:20,15.08838349,0.0001295,53.217,31.6913,90.7283,269.3858,5.9496e-05,6.59e-06,0.0,0 STARLINK-5002,1 53922U 22119AN  24060.61759706  .00000659  00000-0  59496-4 0  9996,2 53922  53.2170  31.6913 0001295  90.7283 269.3858 15.08838349 80255,6917.885,95.438,540.646,538.855,0.0
53922.0,STARLINK-5002,PAYLOAD,2024-03-01 03:32:26,15.08833456,0.0001528,53.2185,29.314,100.8533,259.2631,-5.9055e-05,-1.228e-05,0.0,0 STARLINK-5002,1 53922U 22119AN  24061.14752651 -.00001228  00000-0 -59055-4 0  9993,2 53922  53.2185  29.3140 0001528 100.8533 259.2631 15.08833456 79919,6917.9,95.438,540.822,538.708,0.0
53922.0,STARLINK-5002,PAYLOAD,2024-03-01 06:43:12,15.08836419,0.0001597,53.2196,28.7191,102.8139,257.3031,-3.8738e-05,-9.04e-06,0.0,0 STARLINK-5002,1 53922U 22119AN  24061.28000429 -.00000904  00000-0 -38738-4 0  9992,2 53922  53.2196  28.7191 0001597 102.8139 257.3031 15.08836419 80355,6917.891,95.438,540.861,538.652,0.0
53922.0,STARLINK-5002,PAYLOAD,2024-03-01 14:40:07,15.08842875,0.0001518,53.2199,27.2321,89.6626,270.454,-4.3077e-05,-9.74e-06,0.0,0 STARLINK-5002,1 53922U 22119AN  24061.61120078 -.00000974  00000-0 -43077-4 0  9991,2 53922  53.2199  27.2321 0001518  89.6626 270.4540 15.08842875 79984,6917.872,95.437,540.787,538.686,0.0
53922.0,STARLINK-5002,PAYLOAD,2024-03-02 04:58:35,15.08847983,0.0001759,53.2196,24.5573,110.8244,249.2937,5.4962e-05,5.87e-06,0.0,0 STARLINK-5002,1 53922U 22119AN  24062.20735504  .00000587  00000-0  54962-4 0  9996,2 53922  53.2196  24.5573 0001759 110.8244 249.2937 15.08847983 80071,6917.856,95.437,540.938,538.504,0.0
53922.0,STARLINK-5002,PAYLOAD,2024-03-03 03:14:00,15.08835418,0.0001478,53.22,20.3934,91.3391,268.777,7.3993e-05,8.9e-06,0.0,0 STARLINK-5002,1 53922U 22119AN  24063.13472343  .00000890  00000-0  73993-4 0  9990,2 53922  53.2200  20.3934 0001478  91.3391 268.7770 15.08835418 80213,6917.894,95.438,540.782,538.737,0.0
53922.0,STARLINK-5002,PAYLOAD,2024-03-03 04:49:22,15.08841799,0.0001491,53.2194,20.0959,88.55,271.5663,5.8403e-05,6.42e-06,0.0,0 STARLINK-5002,1 53922U 22119AN  24063.20096051  .00000642  00000-0  58403-4 0  9990,2 53922  53.2194  20.0959 0001491  88.5500 271.5663 15.08841799 80643,6917.875,95.437,540.771,538.708,0.0
53922.0,STARLINK-5002,PAYLOAD,2024-03-03 20:43:14,15.08845218,0.0001627,53.2195,17.1233,86.8497,273.2681,-1.0804e-05,-4.6e-06,0.0,0 STARLINK-5002,1 53922U 22119AN  24063.86336048 -.00000460  00000-0 -10804-4 0  9998,2 53922  53.2195  17.1233 0001627  86.8497 273.2681 15.08845218 80743,6917.864,95.437,540.855,538.604,0.0
53922.0,STARLINK-5002,PAYLOAD,2024-03-04 03:04:46,15.08854434,0.0001644,53.22,15.9382,76.4459,283.6716,5.3203e-05,5.59e-06,0.0,0 STARLINK-5002,1 53922U 22119AN  24064.12831185  .00000559  00000-0  53203-4 0  9997,2 53922  53.2200  15.9382 0001644  76.4459 283.6716 15.08854434 80365,6917.836,95.437,540.839,538.564,0.0
53922.0,STARLINK-5002,PAYLOAD,2024-03-04 20:34:02,15.08834935,0.0001911,53.2216,12.6593,97.1574,262.9635,-6.1709e-05,-1.27e-05,0.0,0 STARLINK-5002,1 53922U 22119AN  24064.85696823 -.00001270  00000-0 -61709-4 0  9998,2 53922  53.2216  12.6593 0001911  97.1574 262.9635 15.08834935 80471,6917.896,95.438,541.083,538.439,0.0
53922.0,STARLINK-5002,PAYLOAD,2024-03-05 02:55:35,15.08824692,0.0001549,53.2203,11.4677,118.5433,241.5715,-0.00011324,-2.089e-05,0.0,0 STARLINK-5002,1 53922U 22119AN  24065.12193539 -.00002089  00000-0 -11324-3 0  9991,2 53922  53.2203  11.4677 0001549 118.5433 241.5715 15.08824692 80512,6917.927,95.439,540.864,538.721,0.0
